start=new Date('2022-07-30T00:00:00.000Z').valueOf();
sats=[{"DECAY_DATE":null,"ELEMENT_SET_NO":"999","OBJECT_NAME":"STARLINK-1063","EPOCH":"2022-07-29T20:18:47.069568","RCS_SIZE":"LARGE","EPHEMERIS_TYPE":"0","RA_OF_ASC_NODE":"27.1252","CENTER_NAME":"EARTH","TLE_LINE2":"2 44768  53.0559  27.1252 0001529  78.2548 281.8613 15.06401360149423","REF_FRAME":"TEME","MEAN_MOTION_DDOT":"0.0000000000000","MEAN_MOTION":"15.06401360","GP_ID":"209130279","LAUNCH_DATE":"2019-11-11","ARG_OF_PERICENTER":"78.2548","APOAPSIS":"548.268","TLE_LINE1":"1 44768U 19074BH  22210.84637812  .00000193  00000-0  31882-4 0  9995","PERIOD":"95.592","OBJECT_ID":"2019-074BH","CLASSIFICATION_TYPE":"U","INCLINATION":"53.0559","OBJECT_TYPE":"PAYLOAD","SEMIMAJOR_AXIS":"6925.344","NORAD_CAT_ID":"44768","PERIAPSIS":"546.151","FILE":"3524848","ECCENTRICITY":"0.00015290","COUNTRY_CODE":"US","MEAN_ELEMENT_THEORY":"SGP4","SITE":"AFETR","REV_AT_EPOCH":"14942","BSTAR":"0.00003188200000","MEAN_MOTION_DOT":"0.00000193","TIME_SYSTEM":"UTC","MEAN_ANOMALY":"281.8613"},{"CENTER_NAME":"EARTH","EPHEMERIS_TYPE":"0","RA_OF_ASC_NODE":"10.4407","REF_FRAME":"TEME","TLE_LINE2":"2 44770  52.9996  10.4407 0002146 132.3313 227.7862 15.17465112149572","ELEMENT_SET_NO":"999","DECAY_DATE":null,"EPOCH":"2022-07-29T10:21:55.019520","RCS_SIZE":"LARGE","OBJECT_NAME":"STARLINK-1065","FILE":"3524608","ECCENTRICITY":"0.00021460","PERIAPSIS":"512.028","COUNTRY_CODE":"US","CLASSIFICATION_TYPE":"U","INCLINATION":"52.9996","OBJECT_TYPE":"PAYLOAD","SEMIMAJOR_AXIS":"6891.642","NORAD_CAT_ID":"44770","BSTAR":"0.00051072000000","MEAN_MOTION_DOT":"0.00010052","TIME_SYSTEM":"UTC","MEAN_ANOMALY":"227.7862","MEAN_ELEMENT_THEORY":"SGP4","SITE":"AFETR","REV_AT_EPOCH":"14957","GP_ID":"209100325","LAUNCH_DATE":"2019-11-11","MEAN_MOTION_DDOT":"0.0000000000000","MEAN_MOTION":"15.17465112","OBJECT_ID":"2019-074BK","ARG_OF_PERICENTER":"132.3313","APOAPSIS":"514.986","PERIOD":"94.895","TLE_LINE1":"1 44770U 19074BK  22210.43188680  .00010052  00000-0  51072-3 0  9994"},{"DECAY_DATE":null,"ELEMENT_SET_NO":"999","OBJECT_NAME":"STARLINK-1067","EPOCH":"2022-07-29T18:27:19.732896","RCS_SIZE":"LARGE","EPHEMERIS_TYPE":"0","RA_OF_ASC_NODE":"27.4819","CENTER_NAME":"EARTH","TLE_LINE2":"2 44771  53.0562  27.4819 0001640  79.0951 281.0223 15.06392800149409","REF_FRAME":"TEME","MEAN_MOTION_DDOT":"0.0000000000000","MEAN_MOTION":"15.06392800","GP_ID":"209130764","LAUNCH_DATE":"2019-11-11","ARG_OF_PERICENTER":"79.0951","APOAPSIS":"548.371","PERIOD":"95.593","TLE_LINE1":"1 44771U 19074BL  22210.76897839 -.00000844  00000-0 -37759-4 0  9991","OBJECT_ID":"2019-074BL","INCLINATION":"53.0562","CLASSIFICATION_TYPE":"U","OBJECT_TYPE":"PAYLOAD","NORAD_CAT_ID":"44771","SEMIMAJOR_AXIS":"6925.371","FILE":"3524848","ECCENTRICITY":"0.00016400","PERIAPSIS":"546.100","COUNTRY_CODE":"US","SITE":"AFETR","MEAN_ELEMENT_THEORY":"SGP4","REV_AT_EPOCH":"14940","BSTAR":"-0.00003775900000","MEAN_MOTION_DOT":"-0.00000844","MEAN_ANOMALY":"281.0223","TIME_SYSTEM":"UTC"},{"OBJECT_ID":"2019-074BM","APOAPSIS":"548.117","ARG_OF_PERICENTER":"90.0683","TLE_LINE1":"1 44772U 19074BM  22210.82610644  .00000359  00000-0  42985-4 0  9992","PERIOD":"95.592","GP_ID":"209129531","LAUNCH_DATE":"2019-11-11","MEAN_MOTION_DDOT":"0.0000000000000","MEAN_MOTION":"15.06401754","MEAN_MOTION_DOT":"0.00000359","BSTAR":"0.00004298500000","MEAN_ANOMALY":"270.0457","TIME_SYSTEM":"UTC","SITE":"AFETR","MEAN_ELEMENT_THEORY":"SGP4","REV_AT_EPOCH":"14968","ECCENTRICITY":"0.00013130","FILE":"3524848","PERIAPSIS":"546.299","COUNTRY_CODE":"US","INCLINATION":"53.0560","CLASSIFICATION_TYPE":"U","SEMIMAJOR_AXIS":"6925.343","OBJECT_TYPE":"PAYLOAD","NORAD_CAT_ID":"44772","EPOCH":"2022-07-29T19:49:35.596416","RCS_SIZE":"LARGE","OBJECT_NAME":"STARLINK-1068","ELEMENT_SET_NO":"999","DECAY_DATE":null,"REF_FRAME":"TEME","TLE_LINE2":"2 44772  53.0560   7.2304 0001313  90.0683 270.0457 15.06401754149681","CENTER_NAME":"EARTH","EPHEMERIS_TYPE":"0","RA_OF_ASC_NODE":"7.2304"},{"OBJECT_ID":"2020-001A","TLE_LINE1":"1 44914U 20001A   22210.11287326  .00000062  00000-0  23070-4 0  9996","PERIOD":"95.592","ARG_OF_PERICENTER":"55.8202","APOAPSIS":"548.793","LAUNCH_DATE":"2020-01-07","GP_ID":"209100339","MEAN_MOTION":"15.06400058","MEAN_MOTION_DDOT":"0.0000000000000","TIME_SYSTEM":"UTC","MEAN_ANOMALY":"304.3003","MEAN_MOTION_DOT":"0.00000062","BSTAR":"0.00002307000000","REV_AT_EPOCH":"14095","MEAN_ELEMENT_THEORY":"SGP4","SITE":"AFETR","COUNTRY_CODE":"US","FILE":"3524608","ECCENTRICITY":"0.00022810","PERIAPSIS":"545.634","OBJECT_TYPE":"PAYLOAD","NORAD_CAT_ID":"44914","SEMIMAJOR_AXIS":"6925.348","CLASSIFICATION_TYPE":"U","INCLINATION":"53.0552","RCS_SIZE":"LARGE","EPOCH":"2022-07-29T02:42:32.249664","OBJECT_NAME":"STARLINK-1073","ELEMENT_SET_NO":"999","DECAY_DATE":null,"REF_FRAME":"TEME","TLE_LINE2":"2 44914  53.0552 150.4251 0002281  55.8202 304.3003 15.06400058140958","CENTER_NAME":"EARTH","RA_OF_ASC_NODE":"150.4251","EPHEMERIS_TYPE":"0"},{"RA_OF_ASC_NODE":"148.5085","EPHEMERIS_TYPE":"0","CENTER_NAME":"EARTH","TLE_LINE2":"2 44915  53.0558 148.5085 0001708  67.7408 292.3761 15.06402832141029","REF_FRAME":"TEME","DECAY_DATE":null,"ELEMENT_SET_NO":"999","OBJECT_NAME":"STARLINK-1084","RCS_SIZE":"LARGE","EPOCH":"2022-07-29T12:58:14.461824","SEMIMAJOR_AXIS":"6925.340","OBJECT_TYPE":"PAYLOAD","NORAD_CAT_ID":"44915","INCLINATION":"53.0558","CLASSIFICATION_TYPE":"U","COUNTRY_CODE":"US","PERIAPSIS":"546.022","FILE":"3524523","ECCENTRICITY":"0.00017080","REV_AT_EPOCH":"14102","SITE":"AFETR","MEAN_ELEMENT_THEORY":"SGP4","MEAN_ANOMALY":"292.3761","TIME_SYSTEM":"UTC","MEAN_MOTION_DOT":"0.00000400","BSTAR":"0.00004573700000","MEAN_MOTION":"15.06402832","MEAN_MOTION_DDOT":"0.0000000000000","GP_ID":"209078760","LAUNCH_DATE":"2020-01-07","TLE_LINE1":"1 44915U 20001B   22210.54044516  .00000400  00000-0  45737-4 0  9996","PERIOD":"95.592","ARG_OF_PERICENTER":"67.7408","APOAPSIS":"548.388","OBJECT_ID":"2020-001B"},{"TLE_LINE1":"1 44917U 20001D   22210.80952724  .00000782  00000-0  71413-4 0  9999","PERIOD":"95.592","ARG_OF_PERICENTER":"68.5727","APOAPSIS":"548.342","OBJECT_ID":"2020-001D","MEAN_MOTION":"15.06394881","MEAN_MOTION_DDOT":"0.0000000000000","GP_ID":"209129545","LAUNCH_DATE":"2020-01-07","REV_AT_EPOCH":"14106","MEAN_ELEMENT_THEORY":"SGP4","SITE":"AFETR","TIME_SYSTEM":"UTC","MEAN_ANOMALY":"291.5433","BSTAR":"0.00007141300000","MEAN_MOTION_DOT":"0.00000782","NORAD_CAT_ID":"44917","OBJECT_TYPE":"PAYLOAD","SEMIMAJOR_AXIS":"6925.364","CLASSIFICATION_TYPE":"U","INCLINATION":"53.0542","COUNTRY_CODE":"US","ECCENTRICITY":"0.00016070","FILE":"3524848","PERIAPSIS":"546.116","OBJECT_NAME":"STARLINK-1098","RCS_SIZE":"LARGE","EPOCH":"2022-07-29T19:25:43.153536","DECAY_DATE":null,"ELEMENT_SET_NO":"999","TLE_LINE2":"2 44917  53.0542 147.2976 0001607  68.5727 291.5433 15.06394881141065","REF_FRAME":"TEME","RA_OF_ASC_NODE":"147.2976","EPHEMERIS_TYPE":"0","CENTER_NAME":"EARTH"},{"DECAY_DATE":null,"ELEMENT_SET_NO":"999","OBJECT_NAME":"STARLINK-1099","RCS_SIZE":"LARGE","EPOCH":"2022-07-29T13:23:25.223712","RA_OF_ASC_NODE":"148.4480","EPHEMERIS_TYPE":"0","CENTER_NAME":"EARTH","TLE_LINE2":"2 44918  53.0550 148.4480 0001535  83.3748 276.7415 15.06404428141767","REF_FRAME":"TEME","MEAN_MOTION":"15.06404428","MEAN_MOTION_DDOT":"0.0000000000000","LAUNCH_DATE":"2020-01-07","GP_ID":"209129795","PERIOD":"95.592","TLE_LINE1":"1 44918U 20001E   22210.55793083  .00000122  00000-0  27064-4 0  9994","APOAPSIS":"548.263","ARG_OF_PERICENTER":"83.3748","OBJECT_ID":"2020-001E","OBJECT_TYPE":"PAYLOAD","SEMIMAJOR_AXIS":"6925.335","NORAD_CAT_ID":"44918","INCLINATION":"53.0550","CLASSIFICATION_TYPE":"U","COUNTRY_CODE":"US","FILE":"3524848","PERIAPSIS":"546.137","ECCENTRICITY":"0.00015350","REV_AT_EPOCH":"14176","SITE":"AFETR","MEAN_ELEMENT_THEORY":"SGP4","MEAN_ANOMALY":"276.7415","TIME_SYSTEM":"UTC","MEAN_MOTION_DOT":"0.00000122","BSTAR":"0.00002706400000"},{"MEAN_ELEMENT_THEORY":"SGP4","SITE":"AFETR","REV_AT_EPOCH":"14106","BSTAR":"0.00014095000000","MEAN_MOTION_DOT":"0.00001818","TIME_SYSTEM":"UTC","MEAN_ANOMALY":"287.5784","CLASSIFICATION_TYPE":"U","INCLINATION":"53.0551","NORAD_CAT_ID":"44920","OBJECT_TYPE":"PAYLOAD","SEMIMAJOR_AXIS":"6925.374","PERIAPSIS":"546.368","FILE":"3524848","ECCENTRICITY":"0.00012580","COUNTRY_CODE":"US","ARG_OF_PERICENTER":"72.5342","APOAPSIS":"548.110","PERIOD":"95.593","TLE_LINE1":"1 44920U 20001G   22210.83533868  .00001818  00000-0  14095-3 0  9993","OBJECT_ID":"2020-001G","MEAN_MOTION_DDOT":"0.0000000000000","MEAN_MOTION":"15.06391621","LAUNCH_DATE":"2020-01-07","GP_ID":"209130543","TLE_LINE2":"2 44920  53.0551 147.1935 0001258  72.5342 287.5784 15.06391621141066","REF_FRAME":"TEME","EPHEMERIS_TYPE":"0","RA_OF_ASC_NODE":"147.1935","CENTER_NAME":"EARTH","OBJECT_NAME":"STARLINK-1102","EPOCH":"2022-07-29T20:02:53.261952","RCS_SIZE":"LARGE","DECAY_DATE":null,"ELEMENT_SET_NO":"999"},{"MEAN_MOTION":"15.06398939","MEAN_MOTION_DDOT":"0.0000000000000","GP_ID":"209109778","LAUNCH_DATE":"2020-01-07","TLE_LINE1":"1 44921U 20001H   22210.52475671  .00000419  00000-0  47031-4 0  9990","PERIOD":"95.592","ARG_OF_PERICENTER":"77.0506","APOAPSIS":"548.382","OBJECT_ID":"2020-001H","SEMIMAJOR_AXIS":"6925.352","OBJECT_TYPE":"PAYLOAD","NORAD_CAT_ID":"44921","CLASSIFICATION_TYPE":"U","INCLINATION":"53.0562","COUNTRY_CODE":"US","FILE":"3524795","PERIAPSIS":"546.052","ECCENTRICITY":"0.00016820","REV_AT_EPOCH":"14099","MEAN_ELEMENT_THEORY":"SGP4","SITE":"AFETR","TIME_SYSTEM":"UTC","MEAN_ANOMALY":"283.0670","MEAN_MOTION_DOT":"0.00000419","BSTAR":"0.00004703100000","DECAY_DATE":null,"ELEMENT_SET_NO":"999","OBJECT_NAME":"STARLINK-1103","RCS_SIZE":"LARGE","EPOCH":"2022-07-29T12:35:38.979744","RA_OF_ASC_NODE":"148.5698","EPHEMERIS_TYPE":"0","CENTER_NAME":"EARTH","TLE_LINE2":"2 44921  53.0562 148.5698 0001682  77.0506 283.0670 15.06398939140998","REF_FRAME":"TEME"}];
